[{"OBJECT_NAME":"QIANFAN-39","OBJECT_ID":"2024-232D","EPOCH":"2026-03-09T21:25:16.059072","MEAN_MOTION":14.25440879,"ECCENTRICITY":0.00171102,"INCLINATION":89.0064,"RA_OF_ASC_NODE":27.3413,"ARG_OF_PERICENTER":145.5992,"MEAN_ANOMALY":214.6313,"EPHEMERIS_TYPE":0,"CLASSIFICATION_TYPE":"U","NORAD_CAT_ID":62240,"ELEMENT_SET_NO":999,"REV_AT_EPOCH":11380,"BSTAR":0.00022622412,"MEAN_MOTION_DOT":5.49e-6,"MEAN_MOTION_DDOT":0},{"OBJECT_NAME":"FENGYUN 1C DEB","OBJECT_ID":"1999-025ART","EPOCH":"2026-03-09T15:50:13.293312","MEAN_MOTION":14.18414216,"ECCENTRICITY":0.0083902,"INCLINATION":99.1524,"RA_OF_ASC_NODE":54.2144,"ARG_OF_PERICENTER":23.2526,"MEAN_ANOMALY":337.2409,"EPHEMERIS_TYPE":0,"CLASSIFICATION_TYPE":"U","NORAD_CAT_ID":30709,"ELEMENT_SET_NO":999,"REV_AT_EPOCH":97228,"BSTAR":0.0027827644,"MEAN_MOTION_DOT":5.905e-5,"MEAN_MOTION_DDOT":0}]
